IRIDIUM 144             
1 43249U 18030A   24097.72985624  .00000063  00000+0  15505-4 0  9997
2 43249  86.3919 265.3292 0002146  90.3095 269.8347 14.34216953315284
IRIDIUM 149             
1 43250U 18030B   24097.38735539  .00000028  00000+0  30073-5 0  9998
2 43250  86.3917 265.4485 0001996  89.6834 270.4590 14.34216870315234
IRIDIUM 157             
1 43251U 18030C   24097.40638139  .00000081  00000+0  21885-4 0  9999
2 43251  86.3919 265.4758 0002024  99.6432 260.4993 14.34217419315212
IRIDIUM 140             
1 43252U 18030D   24097.42541025  .00000024  00000+0  15294-5 0  9994
2 43252  86.3919 265.4826 0002304  85.6171 274.5288 14.34217125315278
IRIDIUM 145             
1 43253U 18030E   24097.41272588  .00000059  00000+0  13832-4 0  9992
2 43253  86.3919 265.4618 0002080  83.5654 276.5779 14.34218072315204
IRIDIUM 146             
1 43254U 18030F   24097.39369754  .00000111  00000+0  32569-4 0  9999
2 43254  86.3917 265.4848 0002044  84.5542 275.5887 14.34217553315218
IRIDIUM 148             
1 43255U 18030G   24097.71082636  .00000112  00000+0  32980-4 0  9995
2 43255  86.3920 265.3830 0001765  89.6836 270.4562 14.34218541315306
IRIDIUM 142             
1 43256U 18030H   24097.40003927  .00000030  00000+0  36094-5 0  9998
2 43256  86.3916 265.4311 0001976  86.0252 274.1170 14.34217863315216
